SL-8 R/B                
1 15483U 85006B   26189.32803475  .00000113  00000+0  46091-4 0  9996
2 15483  74.0451  39.1596 0019265 283.2500 251.1731 14.37842724171360
SL-12 R/B(2)            
1 15772U 85042D   26189.25556829  .00000102  00000+0  67363-4 0  9990
2 15772  71.1061 193.0034 0037200 296.3836  73.8501 14.22009915131539
SL-14 R/B               
1 15945U 85069B   26189.50737700  .00000330  00000+0  34410-4 0  9998
2 15945  82.5268 271.3158 0019612 148.2166 212.0239 14.86532146190785
SL-16 R/B               
1 16182U 85097B   26189.44137389 -.00000249  00000+0 -10087-3 0  9997
2 16182  71.0016 246.3322 0005366  64.9274 306.1100 14.16612949104334
SL-14 R/B               
1 16496U 86006B   26189.31620986  .00000369  00000+0  36458-4 0  9994
2 16496  82.5278 146.2301 0074997 232.0022 127.4408 14.86964658167135
COSMOS 1743             
1 16719U 86034A   26189.33518758  .00042585  00000+0  36747-3 0  9994
2 16719  82.5274 306.2149 0005101 198.5955 161.5120 15.69042926199108
SL-14 R/B               
1 16792U 86046B   26189.36847340  .00000353  00000+0  37733-4 0  9997
2 16792  82.4832 326.1601 0022912 185.4068 174.6904 14.85687011144327
SL-14 R/B               
1 16882U 86055B   26189.48880248  .00000307  00000+0  32532-4 0  9995
2 16882  82.5197  13.1025 0017430 294.5080  95.2274 14.85737338137306
AJISAI (EGS)            
1 16908U 86061A   26189.57783628 -.00000106  00000+0 -63669-4 0  9999
2 16908  50.0098  81.6198 0011107 235.0031 196.3837 12.44516679483057
SL-14 R/B               
1 17567U 87024B   26189.35800833  .00000352  00000+0  37172-4 0  9996
2 17567  82.5291 339.3498 0017262 217.2914 142.7106 14.86228254106053
COSMOS 1833             
1 17589U 87027A   26189.41588329  .00000158  00000+0  10994-3 0  9999
2 17589  70.9211  72.2495 0023776  19.7467 340.4569 14.13064227 27370
SL-16 R/B               
1 17590U 87027B   26189.60310413 -.00000232  00000+0 -91354-4 0  9994
2 17590  71.0029  21.6985 0007124 288.8251  71.2100 14.17173988 32478
SL-14 R/B               
1 17912U 87038B   26189.41511013  .00000304  00000+0  32311-4 0  9998
2 17912  82.5005 183.0761 0020606 123.0931 237.2267 14.85458379 97156
COSMOS 1844             
1 17973U 87041A   26189.25054677  .00000314  00000+0  18794-3 0  9998
2 17973  70.8990 139.8773 0031755 205.0557 154.9026 14.14577012 20635
SL-14 R/B               
1 18153U 87055B   26189.37070318  .00000247  00000+0  25649-4 0  9990
2 18153  82.4976 235.2597 0019930 338.6627  21.3755 14.85724262 87858
COSMOS 1867             
1 18187U 87060A   26189.37093319 -.00000046  00000+0  20380-4 0  9994
2 18187  65.0119 328.7313 0016990 282.0863  77.8317 14.31518037 37219
SL-14 R/B               
1 18749U 88001B   26189.10481266  .00000271  00000+0  28449-4 0  9990
2 18749  82.5129  82.0947 0017513 195.4203 164.6482 14.85623630 59901
COSMOS 1933             
1 18958U 88020A   26189.25225761  .00002980  00000+0  14152-3 0  9999
2 18958  82.5133 131.5736 0005645 125.2682 234.9082 15.18857976 68523
SL-3 R/B                
1 19046U 88032B   26189.55971651  .00002814  00000+0  12905-3 0  9990
2 19046  97.5268 172.5817 0025829 168.1838 192.0009 15.20999272 70476
SL-16 R/B               
1 19120U 88039B   26189.25948463 -.00000008  00000+0  18805-4 0  9992
2 19120  71.0132 173.6001 0021007 160.4506 199.7429 14.19632132975496
COSMOS 1953             
1 19210U 88050A   26189.59955004  .00005172  00000+0  17514-3 0  9992
2 19210  82.5067  36.4355 0012034  60.8486 299.3957 15.30274887 56269
SL-8 R/B                
1 19257U 88053B   26189.57402684  .00000132  00000+0  51231-4 0  9991
2 19257  74.0464 249.6347 0019501  37.3149 109.6789 14.38976032993980
COSMOS 1975             
1 19573U 88093A   26189.41733329  .00004476  00000+0  15451-3 0  9990
2 19573  82.5197 356.3408 0012534 103.3288 256.9351 15.29606843 37856
SL-14 R/B               
1 19574U 88093B   26189.54529068  .00000300  00000+0  31640-4 0  9999
2 19574  82.5318 288.5943 0020599   2.6292   8.7496 14.85757294 18960
SL-16 R/B               
1 19650U 88102B   26189.47807312 -.00000233  00000+0 -93427-4 0  9996
2 19650  70.9992 257.3412 0014666 195.9229 164.1436 14.16168763943995
INTERCOSMOS 24          
1 20261U 89080A   26189.30079234  .00000410  00000+0  11563-3 0  9993
2 20261  82.6046  25.9034 1187565  12.9466 349.9471 12.59688620681989
SL-14 R/B               
1 20262U 89080C   26189.44219118  .00000072  00000+0  21346-4 0  9991
2 20262  82.5941  95.6518 1228472 268.7460  77.2970 12.50577571675242
DELTA 1 R/B             
1 20323U 89089B   26189.25591960  .00000229  00000+0  64919-4 0  9992
2 20323  97.0634  17.4425 0070582 101.4070 259.5067 14.50744830913215
ARIANE 40 R/B           
1 20443U 90005H   26189.58600170  .00000165  00000+0  65953-4 0  9993
2 20443  98.2948 246.5356 0009802 193.7345 166.3579 14.39938709910209
DELTA 2 R/B(1)          
1 20453U 90008B   26189.42110239  .00081337  00000+0  51586-3 0  9998
2 20453  35.5999  93.2361 0062101 312.6243  46.9273 15.72528443945045
