OBJECT_NAME,OBJECT_ID,EPOCH,MEAN_MOTION,ECCENTRICITY,INCLINATION,RA_OF_ASC_NODE,ARG_OF_PERICENTER,MEAN_ANOMALY,EPHEMERIS_TYPE,CLASSIFICATION_TYPE,NORAD_CAT_ID,ELEMENT_SET_NO,REV_AT_EPOCH,BSTAR,MEAN_MOTION_DOT,MEAN_MOTION_DDOT
SL-8 R/B,1985-006B,2026-07-08T07:52:22.202400,14.37842724,.00192651,74.0451,39.1596,283.2500,251.1731,0,U,15483,999,17136,.46091472E-4,.113E-5,0
SL-12 R/B(2),1985-042D,2026-07-08T06:08:01.100256,14.22009915,.00372,71.1061,193.0034,296.3836,73.8501,0,U,15772,999,13153,.67363314E-4,.102E-5,0
SL-14 R/B,1985-069B,2026-07-08T12:10:37.372800,14.86532146,.00196122,82.5268,271.3158,148.2166,212.0239,0,U,15945,999,19078,.34410154E-4,.33E-5,0
SL-16 R/B,1985-097B,2026-07-08T10:35:34.704096,14.16612949,.00053665,71.0016,246.3322,64.9274,306.1100,0,U,16182,999,10433,-.10087148E-3,-.249E-5,0
SL-14 R/B,1986-006B,2026-07-08T07:35:20.531904,14.86964658,.00749977,82.5278,146.2301,232.0022,127.4408,0,U,16496,999,16713,.36457804E-4,.369E-5,0
COSMOS 1743,1986-034A,2026-07-08T08:02:40.206912,15.69042926,.00051013,82.5274,306.2149,198.5955,161.5120,0,U,16719,999,19910,.36746646E-3,.42585E-3,0
SL-14 R/B,1986-046B,2026-07-08T08:50:36.101760,14.85687011,.00229128,82.4832,326.1601,185.4068,174.6904,0,U,16792,999,14432,.3773274E-4,.353E-5,0
SL-14 R/B,1986-055B,2026-07-08T11:43:52.534272,14.85737338,.00174303,82.5197,13.1025,294.5080,95.2274,0,U,16882,999,13730,.32531849E-4,.307E-5,0
AJISAI (EGS),1986-061A,2026-07-08T13:52:05.054592,12.44516679,.0011107,50.0098,81.6198,235.0031,196.3837,0,U,16908,999,48305,-.63668693E-4,-.106E-5,0
SL-14 R/B,1987-024B,2026-07-08T08:35:31.919712,14.86228254,.00172627,82.5291,339.3498,217.2914,142.7106,0,U,17567,999,10605,.37171638E-4,.352E-5,0
COSMOS 1833,1987-027A,2026-07-08T09:58:52.316256,14.13064227,.00237769,70.9211,72.2495,19.7467,340.4569,0,U,17589,999,2737,.10993652E-3,.158E-5,0
SL-16 R/B,1987-027B,2026-07-08T14:28:28.196832,14.17173988,.00071241,71.0029,21.6985,288.8251,71.2100,0,U,17590,999,3247,-.91354318E-4,-.232E-5,0
SL-14 R/B,1987-038B,2026-07-08T09:57:45.515232,14.85458379,.00206061,82.5005,183.0761,123.0931,237.2267,0,U,17912,999,9715,.32310519E-4,.304E-5,0
COSMOS 1844,1987-041A,2026-07-08T06:00:47.240928,14.14577012,.00317551,70.8990,139.8773,205.0557,154.9026,0,U,17973,999,2063,.18793757E-3,.314E-5,0
SL-14 R/B,1987-055B,2026-07-08T08:53:48.754752,14.85724262,.00199308,82.4976,235.2597,338.6627,21.3755,0,U,18153,999,8785,.25648653E-4,.247E-5,0
COSMOS 1867,1987-060A,2026-07-08T08:54:08.627616,14.31518037,.00169908,65.0119,328.7313,282.0863,77.8317,0,U,18187,999,3721,.20380085E-4,-.46E-6,0
SL-14 R/B,1988-001B,2026-07-08T02:30:55.813824,14.85623630,.00175135,82.5129,82.0947,195.4203,164.6482,0,U,18749,999,5990,.28448778E-4,.271E-5,0
COSMOS 1933,1988-020A,2026-07-08T06:03:15.057504,15.18857976,.00056457,82.5133,131.5736,125.2682,234.9082,0,U,18958,999,6852,.14151998E-3,.298E-4,0
SL-3 R/B,1988-032B,2026-07-08T13:25:59.506464,15.20999272,.00258293,97.5268,172.5817,168.1838,192.0009,0,U,19046,999,7047,.12904876E-3,.2814E-4,0
SL-16 R/B,1988-039B,2026-07-08T06:13:39.472032,14.19632132,.00210073,71.0132,173.6001,160.4506,199.7429,0,U,19120,999,97549,.18804651E-4,-.8E-7,0
COSMOS 1953,1988-050A,2026-07-08T14:23:21.123456,15.30274887,.00120345,82.5067,36.4355,60.8486,299.3957,0,U,19210,999,5626,.17514319E-3,.5172E-4,0
SL-8 R/B,1988-053B,2026-07-08T13:46:35.918976,14.38976032,.00195019,74.0464,249.6347,37.3149,109.6789,0,U,19257,999,99398,.51230823E-4,.132E-5,0
COSMOS 1975,1988-093A,2026-07-08T10:00:57.596256,15.29606843,.0012534,82.5197,356.3408,103.3288,256.9351,0,U,19573,999,3785,.15451314E-3,.4476E-4,0
SL-14 R/B,1988-093B,2026-07-08T13:05:13.114752,14.85757294,.00205996,82.5318,288.5943,2.6292,8.7496,0,U,19574,999,1896,.31639687E-4,.3E-5,0
SL-16 R/B,1988-102B,2026-07-08T11:28:25.517568,14.16168763,.00146667,70.9992,257.3412,195.9229,164.1436,0,U,19650,999,94399,-.93426834E-4,-.233E-5,0
INTERCOSMOS 24,1989-080A,2026-07-08T07:13:08.458176,12.59688620,.11875655,82.6046,25.9034,12.9466,349.9471,0,U,20261,999,68198,.11562771E-3,.41E-5,0
SL-14 R/B,1989-080C,2026-07-08T10:36:45.317952,12.50577571,.1228472,82.5941,95.6518,268.7460,77.2970,0,U,20262,999,67524,.2134573E-4,.72E-6,0
DELTA 1 R/B,1989-089B,2026-07-08T06:08:31.453440,14.50744830,.00705822,97.0634,17.4425,101.4070,259.5067,0,U,20323,999,91321,.64919296E-4,.229E-5,0
ARIANE 40 R/B,1990-005H,2026-07-08T14:03:50.546880,14.39938709,.00098024,98.2948,246.5356,193.7345,166.3579,0,U,20443,999,91020,.65953212E-4,.165E-5,0
DELTA 2 R/B(1),1990-008B,2026-07-08T10:06:23.246496,15.72528443,.00621011,35.5999,93.2361,312.6243,46.9273,0,U,20453,999,94504,.51586252E-3,.81337E-3,0
